INTELSAT 23 (IS-23)     
1 38867U 12057A   26182.43146049 -.00000274  00000+0  00000+0 0  9999
2 38867   0.0117  28.2551 0000216 181.4970 172.0587  1.00267912 50097
FM-6                    
1 39360U 13058A   26181.99119567 -.00000005  00000+0  00000+0 0  9997
2 39360   0.0186  48.2586 0001859 133.0710 338.2378  1.00271573 46212
INTELSAT 30 (IS-30)     
1 40271U 14062A   26182.55594242 -.00000140  00000+0  00000+0 0  9996
2 40271   0.0216  49.0056 0001461 348.6239 347.0596  1.00269881  6933
DIRECTV 14              
1 40333U 14078B   26182.49360291 -.00000115  00000+0  00000+0 0  9992
2 40333   0.0108  16.3305 0000388  24.0591 317.6198  1.00273352 42185
DIRECTV 15              
1 40663U 15026A   26182.55768684 -.00000092  00000+0  00000+0 0  9991
2 40663   0.0147  58.1811 0000544 348.5488 330.7682  1.00269207 40606
SKY MEXICO-1            
1 40664U 15026B   26182.49767625 -.00000224  00000+0  00000+0 0  9996
2 40664   0.0187  24.6323 0002652  93.7961 261.4814  1.00270650 40593
INTELSAT 34 (IS-34)     
1 40874U 15039A   26182.50226961 -.00000275  00000+0  00000+0 0  9994
2 40874   0.0112   1.7901 0000533  35.6378   7.4456  1.00270203 39777
INTELSAT 31 (IS-31)     
1 41581U 16035A   26182.55806885 -.00000140  00000+0  00000+0 0  9992
2 41581   0.0162 287.8314 0000652 350.1203 107.5034  1.00270123 36825
INTELSAT 36 (IS-36)     
1 41747U 16053A   26182.45555392 -.00000014  00000+0  00000+0 0  9999
2 41747   0.0105  18.1465 0002069 330.3366 163.5254  1.00270597 36104
INTELSAT 32E (IS-32E)   
1 41945U 17007B   26180.50866479  .00000000  00000+0  00000+0 0  9998
2 41945   0.0243  13.6582 0000889 344.8527  59.0307  1.00268307 34342
INTELSAT 35E (IS-35E)   
1 42818U 17041A   26182.43194343  .00000000  00000+0  00000+0 0  9994
2 42818   0.0222  29.9673 0002308  70.2432 300.2682  1.00267116 32952
INTELSAT 37E (IS-37E)   
1 42950U 17059A   26182.36714472  .00000000  00000+0  00000+0 0  9993
2 42950   0.0252  37.6937 0002881  66.4474 289.4444  1.00268190 32205
AZERSPACE 2 (IS-38)     
1 43632U 18074A   26182.59351193  .00000000  00000+0  00000+0 0  9991
2 43632   0.0255  35.0828 0001627  70.9209  72.4128  1.00270322 28596
HORIZONS-3E             
1 43633U 18074B   26182.59320846 -.00000020  00000+0  00000+0 0  9996
2 43633   0.0185 202.8567 0000562  76.6574  22.6970  1.00270279 28489
AT&T T-16               
1 44333U 19034A   26182.55699351 -.00000104  00000+0  00000+0 0  9990
2 44333   0.0166  61.9979 0000756 283.2097  34.0538  1.00268857 25773
INTELSAT 39 (IS-39)     
1 44476U 19049B   26182.59807902  .00000000  00000+0  00000+0 0  9995
2 44476   0.0221  21.6791 0000952 322.1233 213.1109  1.00269795 25272
GALAXY 30 (G-30)        
1 46114U 20056C   26182.56673554  .00000047  00000+0  00000+0 0  9998
2 46114   0.0158  40.6278 0002239  58.0496 259.9584  1.00272953 21438
GALAXY 33 (G-33)        
1 54026U 22128A   26182.57492124  .00000089  00000+0  00000+0 0  9990
2 54026   0.0132  26.1790 0002053  72.2770 255.1499  1.00273072 13882
GALAXY 34 (G-34)        
1 54027U 22128B   26182.57452456  .00000000  00000+0  00000+0 0  9998
2 54027   0.0273  25.0397 0001947  81.3014 251.1256  1.00274932 14056
GALAXY 31 (G-31)        
1 54243U 22153A   26182.56770957  .00000024  00000+0  00000+0 0  9990
2 54243   0.0155  61.4199 0001597  35.8277 265.7380  1.00272003  7277
GALAXY 32 (G-32)        
1 54244U 22153B   26182.42390999 -.00000164  00000+0  00000+0 0  9996
2 54244   0.0075  19.9443 0002074  30.4815 290.6632  1.00273064 13282
GALAXY 35 (G-35)        
1 54741U 22170A   26182.55422100 -.00000152  00000+0  00000+0 0  9998
2 54741   0.0161  47.1825 0002340  53.5929 285.2368  1.00273376 13030
GALAXY 36 (G-36)        
1 54742U 22170B   26182.56925421 -.00000175  00000+0  00000+0 0  9999
2 54742   0.0067 331.2794 0002855 122.1653 302.1009  1.00270685 12913
GALAXY 37 (G-37)        
1 57493U 23112A   26182.56742672  .00000059  00000+0  00000+0 0  9997
2 57493   0.0173 339.8436 0002128 121.1574 255.8906  1.00271422 10680
